{
"type": "FeatureCollection",
"name": "catchments",
"crs": { "type": "name", "properties": { "name": "urn:ogc:def:crs:OGC:1.3:CRS84" } },
"features": [
{ "type": "Feature", "properties": { "catchment_id": "MC_MEPPADI_01", "name": "Chembra Scarp Upper Catchment", "village": "Meppadi", "area_km2": 4.82, "mean_elevation_m": 1240.0, "mean_slope_deg": 38.5, "flow_accumulation_index": 0.89, "drainage_order": 3, "rainfall_24h_mm": 284.5, "centroid_lat": 11.535, "centroid_lon": 76.135 }, "geometry": { "type": "Polygon", "coordinates": [ [ [ 76.12, 11.52 ], [ 76.15, 11.52 ], [ 76.155, 11.545 ], [ 76.125, 11.55 ], [ 76.12, 11.52 ] ] ] } },
{ "type": "Feature", "properties": { "catchment_id": "MC_MEPPADI_02", "name": "Mundakkai Valley Runout Basin", "village": "Meppadi", "area_km2": 3.45, "mean_elevation_m": 920.0, "mean_slope_deg": 29.2, "flow_accumulation_index": 0.94, "drainage_order": 2, "rainfall_24h_mm": 280.0, "centroid_lat": 11.545, "centroid_lon": 76.13 }, "geometry": { "type": "Polygon", "coordinates": [ [ [ 76.115, 11.535 ], [ 76.145, 11.535 ], [ 76.14, 11.56 ], [ 76.11, 11.555 ], [ 76.115, 11.535 ] ] ] } },
{ "type": "Feature", "properties": { "catchment_id": "MC_MEPPADI_03", "name": "Chooralmala Confluence Corridor", "village": "Meppadi", "area_km2": 2.9, "mean_elevation_m": 780.0, "mean_slope_deg": 22.4, "flow_accumulation_index": 0.98, "drainage_order": 1, "rainfall_24h_mm": 275.0, "centroid_lat": 11.554, "centroid_lon": 76.128 }, "geometry": { "type": "Polygon", "coordinates": [ [ [ 76.11, 11.545 ], [ 76.14, 11.545 ], [ 76.135, 11.57 ], [ 76.105, 11.565 ], [ 76.11, 11.545 ] ] ] } },
{ "type": "Feature", "properties": { "catchment_id": "MC_MEPPADI_04", "name": "Vellarimala Eastern Flank", "village": "Meppadi", "area_km2": 5.1, "mean_elevation_m": 1150.0, "mean_slope_deg": 34.1, "flow_accumulation_index": 0.76, "drainage_order": 3, "rainfall_24h_mm": 240.0, "centroid_lat": 11.565, "centroid_lon": 76.145 }, "geometry": { "type": "Polygon", "coordinates": [ [ [ 76.13, 11.55 ], [ 76.16, 11.55 ], [ 76.16, 11.58 ], [ 76.13, 11.58 ], [ 76.13, 11.55 ] ] ] } },
{ "type": "Feature", "properties": { "catchment_id": "MC_ACHOOR_01", "name": "Achooranam Western Slopes", "village": "Achooranam", "area_km2": 4.15, "mean_elevation_m": 890.0, "mean_slope_deg": 26.5, "flow_accumulation_index": 0.65, "drainage_order": 2, "rainfall_24h_mm": 178.0, "centroid_lat": 11.585, "centroid_lon": 76.015 }, "geometry": { "type": "Polygon", "coordinates": [ [ [ 76.0, 11.57 ], [ 76.03, 11.57 ], [ 76.035, 11.6 ], [ 76.005, 11.6 ], [ 76.0, 11.57 ] ] ] } },
{ "type": "Feature", "properties": { "catchment_id": "MC_ACHOOR_02", "name": "Achoor Valley Tea Basin", "village": "Achooranam", "area_km2": 3.8, "mean_elevation_m": 810.0, "mean_slope_deg": 18.0, "flow_accumulation_index": 0.72, "drainage_order": 1, "rainfall_24h_mm": 165.0, "centroid_lat": 11.595, "centroid_lon": 76.03 }, "geometry": { "type": "Polygon", "coordinates": [ [ [ 76.015, 11.58 ], [ 76.045, 11.58 ], [ 76.045, 11.61 ], [ 76.015, 11.61 ], [ 76.015, 11.58 ] ] ] } },
{ "type": "Feature", "properties": { "catchment_id": "MC_KOTTATHARA_01", "name": "Kabini River Lowland Basin", "village": "Kottathara", "area_km2": 6.4, "mean_elevation_m": 725.0, "mean_slope_deg": 6.8, "flow_accumulation_index": 0.99, "drainage_order": 1, "rainfall_24h_mm": 142.0, "centroid_lat": 11.685, "centroid_lon": 76.035 }, "geometry": { "type": "Polygon", "coordinates": [ [ [ 76.02, 11.67 ], [ 76.05, 11.67 ], [ 76.05, 11.7 ], [ 76.02, 11.7 ], [ 76.02, 11.67 ] ] ] } },
{ "type": "Feature", "properties": { "catchment_id": "MC_KOTTATHARA_02", "name": "Venniyode Flood Overflow", "village": "Kottathara", "area_km2": 4.9, "mean_elevation_m": 730.0, "mean_slope_deg": 8.2, "flow_accumulation_index": 0.91, "drainage_order": 1, "rainfall_24h_mm": 138.0, "centroid_lat": 11.67, "centroid_lon": 76.055 }, "geometry": { "type": "Polygon", "coordinates": [ [ [ 76.04, 11.655 ], [ 76.07, 11.655 ], [ 76.07, 11.685 ], [ 76.04, 11.685 ], [ 76.04, 11.655 ] ] ] } },
{ "type": "Feature", "properties": { "catchment_id": "MC_KUPPADITHARA_01", "name": "Kuppadithara Agricultural Plain", "village": "Kuppadithara", "area_km2": 5.2, "mean_elevation_m": 735.0, "mean_slope_deg": 7.4, "flow_accumulation_index": 0.85, "drainage_order": 1, "rainfall_24h_mm": 128.0, "centroid_lat": 11.655, "centroid_lon": 76.015 }, "geometry": { "type": "Polygon", "coordinates": [ [ [ 76.0, 11.64 ], [ 76.03, 11.64 ], [ 76.03, 11.67 ], [ 76.0, 11.67 ], [ 76.0, 11.64 ] ] ] } },
{ "type": "Feature", "properties": { "catchment_id": "MC_KUPPADITHARA_02", "name": "Padinharathara Foothills", "village": "Kuppadithara", "area_km2": 3.9, "mean_elevation_m": 790.0, "mean_slope_deg": 14.5, "flow_accumulation_index": 0.68, "drainage_order": 2, "rainfall_24h_mm": 135.0, "centroid_lat": 11.64, "centroid_lon": 75.995 }, "geometry": { "type": "Polygon", "coordinates": [ [ [ 75.98, 11.625 ], [ 76.01, 11.625 ], [ 76.01, 11.655 ], [ 75.98, 11.655 ], [ 75.98, 11.625 ] ] ] } },
{ "type": "Feature", "properties": { "catchment_id": "MC_VYTHIRI_01", "name": "Vythiri Ghat Pass Ridge", "village": "Vythiri", "area_km2": 4.5, "mean_elevation_m": 1050.0, "mean_slope_deg": 31.0, "flow_accumulation_index": 0.82, "drainage_order": 2, "rainfall_24h_mm": 210.0, "centroid_lat": 11.55, "centroid_lon": 76.04 }, "geometry": { "type": "Polygon", "coordinates": [ [ [ 76.025, 11.535 ], [ 76.055, 11.535 ], [ 76.055, 11.565 ], [ 76.025, 11.565 ], [ 76.025, 11.535 ] ] ] } },
{ "type": "Feature", "properties": { "catchment_id": "MC_KALPETTA_01", "name": "Kalpetta Urban Plateau", "village": "Kalpetta", "area_km2": 5.8, "mean_elevation_m": 780.0, "mean_slope_deg": 11.2, "flow_accumulation_index": 0.74, "drainage_order": 1, "rainfall_24h_mm": 150.0, "centroid_lat": 11.605, "centroid_lon": 76.085 }, "geometry": { "type": "Polygon", "coordinates": [ [ [ 76.07, 11.59 ], [ 76.1, 11.59 ], [ 76.1, 11.62 ], [ 76.07, 11.62 ], [ 76.07, 11.59 ] ] ] } }
]
}
